IRIDIUM 166             
1 43570U 18061B   24335.84446064  .00000911  00000+0  31802-3 0  9995
2 43570  86.3941 292.1420 0002010  80.6120 279.5303 14.34225581332655
IRIDIUM 158             
1 43571U 18061C   24336.58021127  .00000467  00000+0  15979-3 0  9990
2 43571  86.3945 291.8440 0002239  80.3635 279.7814 14.34220354332730
IRIDIUM 165             
1 43572U 18061D   24336.11720102  .00000778  00000+0  27063-3 0  9991
2 43572  86.3946 292.0732 0002124  88.1697 271.9742 14.34220351332681
IRIDIUM 155             
1 43573U 18061E   24336.35822357 -.00000013  00000+0 -11639-4 0  9990
2 43573  86.3937 291.8694 0001973  75.6261 284.5154 14.34217173332691
IRIDIUM 154             
1 43574U 18061F   24336.82756875  .00000903  00000+0  31533-3 0  9994
2 43574  86.3944 291.7787 0002256  88.0191 272.1263 14.34223502332807
IRIDIUM 163             
1 43575U 18061G   24335.83179906  .00000909  00000+0  31757-3 0  9993
2 43575  86.3941 292.1283 0002376  82.1224 278.0242 14.34218127332636
IRIDIUM 156             
1 43576U 18061H   24336.15525708  .00000823  00000+0  28693-3 0  9995
2 43576  86.3943 291.9996 0002133  75.5257 284.6175 14.34221123332661
IRIDIUM 164             
1 43577U 18061J   24336.83389618  .00000884  00000+0  30845-3 0  9998
2 43577  86.3944 291.7472 0001970  88.3559 271.7862 14.34227966332813
